ALOS (DAICHI)           
1 28931U 06002A   25350.37236890  .00001285  00000+0  22503-3 0  9994
2 28931  98.1096 301.8341 0001308 113.8220 246.3123 14.69498220 61246
H-2A R/B                
1 28932U 06002B   25350.35288474  .00007578  00000+0  39899-3 0  9995
2 28932  98.2312 125.3962 0054641 164.0673 196.2292 15.14644325 81810
RESURS-DK 1             
1 29228U 06021A   25350.33626908  .00002307  00000+0  13953-3 0  9999
2 29228  69.9334  92.5438 0006957 256.1487 103.8905 15.12182241 74925
CZ-4B R/B               
1 29507U 06046C   25350.13561996  .00004247  00000+0  22220-3 0  9991
2 29507  97.5737  30.2650 0033569 194.6236 165.4029 15.15907660 47385
CZ-2C R/B               
1 31114U 07010B   25350.31179096  .00000133  00000+0  79814-4 0  9998
2 31114  98.3975 102.7828 0059194 175.5953 184.5758 14.20211475967887
COSMO-SKYMED 1          
1 31598U 07023A   25350.33367574  .00003577  00000+0  32589-3 0  9992
2 31598  97.8834 175.7561 0001478  88.7318 271.4072 14.95793559  2444
COSMOS 2428             
1 31792U 07029A   25350.34905820  .00000128  00000+0  94278-4 0  9990
2 31792  70.9366  18.3019 0003864  18.2909 341.8351 14.12890922952321
SL-16 R/B               
1 31793U 07029B   25350.35627624  .00000055  00000+0  53140-4 0  9997
2 31793  70.9755 347.5552 0002036 261.8079 198.6372 14.14814821953583
KORONAS-FOTON           
1 33504U 09003A   25350.13054181  .00009745  00000+0  23264-3 0  9999
2 33504  82.4312   2.5927 0013394  97.7646 262.5122 15.41271856932869
CZ-2C R/B               
1 37731U 11030B   25350.32939002  .00001419  00000+0  18652-3 0  9998
2 37731  97.8416 304.3565 0051310 261.6213 263.1460 14.80913748777755
H-2A R/B                
1 38341U 12025E   25350.32221007  .00001860  00000+0  17559-3 0  9995
2 38341  98.4604 305.8287 0043911 224.3247 135.4453 14.94475490735767
SHIJIAN-16 (SJ-16)      
1 39358U 13057A   25350.35736681  .00001466  00000+0  14706-3 0  9995
2 39358  74.9732 342.8105 0017744 311.2797  48.6863 14.91996221659074
