CCSDS_OMM_VERS = 2.0
CREATION_DATE  = 
ORIGINATOR     = 

OBJECT_NAME    = ALOS (DAICHI)
OBJECT_ID      = 2006-002A
CENTER_NAME    = EARTH
REF_FRAME      = TEME
TIME_SYSTEM    = UTC
MEAN_ELEMENT_THEORY = SGP/SGP4

EPOCH          = 2025-12-16T08:56:12.672960
MEAN_MOTION    = 14.69498220
ECCENTRICITY   = .00013083
INCLINATION    = 98.1096
RA_OF_ASC_NODE = 301.8341
ARG_OF_PERICENTER = 113.8220
MEAN_ANOMALY   = 246.3123

EPHEMERIS_TYPE = 0
CLASSIFICATION_TYPE = U
NORAD_CAT_ID   = 28931
ELEMENT_SET_NO = 999
REV_AT_EPOCH   = 6124
BSTAR          = .22502715E-3
MEAN_MOTION_DOT = .1285E-4
MEAN_MOTION_DDOT = 0

CCSDS_OMM_VERS = 2.0
CREATION_DATE  = 
ORIGINATOR     = 

OBJECT_NAME    = H-2A R/B
OBJECT_ID      = 2006-002B
CENTER_NAME    = EARTH
REF_FRAME      = TEME
TIME_SYSTEM    = UTC
MEAN_ELEMENT_THEORY = SGP/SGP4

EPOCH          = 2025-12-16T08:28:09.241536
MEAN_MOTION    = 15.14644325
ECCENTRICITY   = .00546411
INCLINATION    = 98.2312
RA_OF_ASC_NODE = 125.3962
ARG_OF_PERICENTER = 164.0673
MEAN_ANOMALY   = 196.2292

EPHEMERIS_TYPE = 0
CLASSIFICATION_TYPE = U
NORAD_CAT_ID   = 28932
ELEMENT_SET_NO = 999
REV_AT_EPOCH   = 8181
BSTAR          = .39899178E-3
MEAN_MOTION_DOT = .7578E-4
MEAN_MOTION_DDOT = 0

CCSDS_OMM_VERS = 2.0
CREATION_DATE  = 
ORIGINATOR     = 

OBJECT_NAME    = RESURS-DK 1
OBJECT_ID      = 2006-021A
CENTER_NAME    = EARTH
REF_FRAME      = TEME
TIME_SYSTEM    = UTC
MEAN_ELEMENT_THEORY = SGP/SGP4

EPOCH          = 2025-12-16T08:04:13.648512
MEAN_MOTION    = 15.12182241
ECCENTRICITY   = .00069577
INCLINATION    = 69.9334
RA_OF_ASC_NODE = 92.5438
ARG_OF_PERICENTER = 256.1487
MEAN_ANOMALY   = 103.8905

EPHEMERIS_TYPE = 0
CLASSIFICATION_TYPE = U
NORAD_CAT_ID   = 29228
ELEMENT_SET_NO = 999
REV_AT_EPOCH   = 7492
BSTAR          = .13952849E-3
MEAN_MOTION_DOT = .2307E-4
MEAN_MOTION_DDOT = 0

CCSDS_OMM_VERS = 2.0
CREATION_DATE  = 
ORIGINATOR     = 

OBJECT_NAME    = CZ-4B R/B
OBJECT_ID      = 2006-046C
CENTER_NAME    = EARTH
REF_FRAME      = TEME
TIME_SYSTEM    = UTC
MEAN_ELEMENT_THEORY = SGP/SGP4

EPOCH          = 2025-12-16T03:15:17.564544
MEAN_MOTION    = 15.15907660
ECCENTRICITY   = .00335691
INCLINATION    = 97.5737
RA_OF_ASC_NODE = 30.2650
ARG_OF_PERICENTER = 194.6236
MEAN_ANOMALY   = 165.4029

EPHEMERIS_TYPE = 0
CLASSIFICATION_TYPE = U
NORAD_CAT_ID   = 29507
ELEMENT_SET_NO = 999
REV_AT_EPOCH   = 4738
BSTAR          = .22220058E-3
MEAN_MOTION_DOT = .4247E-4
MEAN_MOTION_DDOT = 0

CCSDS_OMM_VERS = 2.0
CREATION_DATE  = 
ORIGINATOR     = 

OBJECT_NAME    = CZ-2C R/B
OBJECT_ID      = 2007-010B
CENTER_NAME    = EARTH
REF_FRAME      = TEME
TIME_SYSTEM    = UTC
MEAN_ELEMENT_THEORY = SGP/SGP4

EPOCH          = 2025-12-16T07:28:58.738944
MEAN_MOTION    = 14.20211475
ECCENTRICITY   = .00591943
INCLINATION    = 98.3975
RA_OF_ASC_NODE = 102.7828
ARG_OF_PERICENTER = 175.5953
MEAN_ANOMALY   = 184.5758

EPHEMERIS_TYPE = 0
CLASSIFICATION_TYPE = U
NORAD_CAT_ID   = 31114
ELEMENT_SET_NO = 999
REV_AT_EPOCH   = 96788
BSTAR          = .79814124E-4
MEAN_MOTION_DOT = .133E-5
MEAN_MOTION_DDOT = 0

CCSDS_OMM_VERS = 2.0
CREATION_DATE  = 
ORIGINATOR     = 

OBJECT_NAME    = COSMO-SKYMED 1
OBJECT_ID      = 2007-023A
CENTER_NAME    = EARTH
REF_FRAME      = TEME
TIME_SYSTEM    = UTC
MEAN_ELEMENT_THEORY = SGP/SGP4

EPOCH          = 2025-12-16T08:00:29.583936
MEAN_MOTION    = 14.95793559
ECCENTRICITY   = .00014789
INCLINATION    = 97.8834
RA_OF_ASC_NODE = 175.7561
ARG_OF_PERICENTER = 88.7318
MEAN_ANOMALY   = 271.4072

EPHEMERIS_TYPE = 0
CLASSIFICATION_TYPE = U
NORAD_CAT_ID   = 31598
ELEMENT_SET_NO = 999
REV_AT_EPOCH   = 244
BSTAR          = .32589097E-3
MEAN_MOTION_DOT = .3577E-4
MEAN_MOTION_DDOT = 0

CCSDS_OMM_VERS = 2.0
CREATION_DATE  = 
ORIGINATOR     = 

OBJECT_NAME    = COSMOS 2428
OBJECT_ID      = 2007-029A
CENTER_NAME    = EARTH
REF_FRAME      = TEME
TIME_SYSTEM    = UTC
MEAN_ELEMENT_THEORY = SGP/SGP4

EPOCH          = 2025-12-16T08:22:38.628480
MEAN_MOTION    = 14.12890922
ECCENTRICITY   = .00038648
INCLINATION    = 70.9366
RA_OF_ASC_NODE = 18.3019
ARG_OF_PERICENTER = 18.2909
MEAN_ANOMALY   = 341.8351

EPHEMERIS_TYPE = 0
CLASSIFICATION_TYPE = U
NORAD_CAT_ID   = 31792
ELEMENT_SET_NO = 999
REV_AT_EPOCH   = 95232
BSTAR          = .94278289E-4
MEAN_MOTION_DOT = .128E-5
MEAN_MOTION_DDOT = 0

CCSDS_OMM_VERS = 2.0
CREATION_DATE  = 
ORIGINATOR     = 

OBJECT_NAME    = SL-16 R/B
OBJECT_ID      = 2007-029B
CENTER_NAME    = EARTH
REF_FRAME      = TEME
TIME_SYSTEM    = UTC
MEAN_ELEMENT_THEORY = SGP/SGP4

EPOCH          = 2025-12-16T08:33:02.267136
MEAN_MOTION    = 14.14814821
ECCENTRICITY   = .00020364
INCLINATION    = 70.9755
RA_OF_ASC_NODE = 347.5552
ARG_OF_PERICENTER = 261.8079
MEAN_ANOMALY   = 198.6372

EPHEMERIS_TYPE = 0
CLASSIFICATION_TYPE = U
NORAD_CAT_ID   = 31793
ELEMENT_SET_NO = 999
REV_AT_EPOCH   = 95358
BSTAR          = .53139847E-4
MEAN_MOTION_DOT = .55E-6
MEAN_MOTION_DDOT = 0

CCSDS_OMM_VERS = 2.0
CREATION_DATE  = 
ORIGINATOR     = 

OBJECT_NAME    = KORONAS-FOTON
OBJECT_ID      = 2009-003A
CENTER_NAME    = EARTH
REF_FRAME      = TEME
TIME_SYSTEM    = UTC
MEAN_ELEMENT_THEORY = SGP/SGP4

EPOCH          = 2025-12-16T03:07:58.812384
MEAN_MOTION    = 15.41271856
ECCENTRICITY   = .00133945
INCLINATION    = 82.4312
RA_OF_ASC_NODE = 2.5927
ARG_OF_PERICENTER = 97.7646
MEAN_ANOMALY   = 262.5122

EPHEMERIS_TYPE = 0
CLASSIFICATION_TYPE = U
NORAD_CAT_ID   = 33504
ELEMENT_SET_NO = 999
REV_AT_EPOCH   = 93286
BSTAR          = .2326363E-3
MEAN_MOTION_DOT = .9745E-4
MEAN_MOTION_DDOT = 0

CCSDS_OMM_VERS = 2.0
CREATION_DATE  = 
ORIGINATOR     = 

OBJECT_NAME    = CZ-2C R/B
OBJECT_ID      = 2011-030B
CENTER_NAME    = EARTH
REF_FRAME      = TEME
TIME_SYSTEM    = UTC
MEAN_ELEMENT_THEORY = SGP/SGP4

EPOCH          = 2025-12-16T07:54:19.297728
MEAN_MOTION    = 14.80913748
ECCENTRICITY   = .00513101
INCLINATION    = 97.8416
RA_OF_ASC_NODE = 304.3565
ARG_OF_PERICENTER = 261.6213
MEAN_ANOMALY   = 263.1460

EPHEMERIS_TYPE = 0
CLASSIFICATION_TYPE = U
NORAD_CAT_ID   = 37731
ELEMENT_SET_NO = 999
REV_AT_EPOCH   = 77775
BSTAR          = .18651838E-3
MEAN_MOTION_DOT = .1419E-4
MEAN_MOTION_DDOT = 0

CCSDS_OMM_VERS = 2.0
CREATION_DATE  = 
ORIGINATOR     = 

OBJECT_NAME    = H-2A R/B
OBJECT_ID      = 2012-025E
CENTER_NAME    = EARTH
REF_FRAME      = TEME
TIME_SYSTEM    = UTC
MEAN_ELEMENT_THEORY = SGP/SGP4

EPOCH          = 2025-12-16T07:43:58.950048
MEAN_MOTION    = 14.94475490
ECCENTRICITY   = .00439118
INCLINATION    = 98.4604
RA_OF_ASC_NODE = 305.8287
ARG_OF_PERICENTER = 224.3247
MEAN_ANOMALY   = 135.4453

EPHEMERIS_TYPE = 0
CLASSIFICATION_TYPE = U
NORAD_CAT_ID   = 38341
ELEMENT_SET_NO = 999
REV_AT_EPOCH   = 73576
BSTAR          = .17558844E-3
MEAN_MOTION_DOT = .186E-4
MEAN_MOTION_DDOT = 0

CCSDS_OMM_VERS = 2.0
CREATION_DATE  = 
ORIGINATOR     = 

OBJECT_NAME    = SHIJIAN-16 (SJ-16)
OBJECT_ID      = 2013-057A
CENTER_NAME    = EARTH
REF_FRAME      = TEME
TIME_SYSTEM    = UTC
MEAN_ELEMENT_THEORY = SGP/SGP4

EPOCH          = 2025-12-16T08:34:36.492384
MEAN_MOTION    = 14.91996221
ECCENTRICITY   = .00177441
INCLINATION    = 74.9732
RA_OF_ASC_NODE = 342.8105
ARG_OF_PERICENTER = 311.2797
MEAN_ANOMALY   = 48.6863

EPHEMERIS_TYPE = 0
CLASSIFICATION_TYPE = U
NORAD_CAT_ID   = 39358
ELEMENT_SET_NO = 999
REV_AT_EPOCH   = 65907
BSTAR          = .14706036E-3
MEAN_MOTION_DOT = .1466E-4
MEAN_MOTION_DDOT = 0

